CCSDS_OEM_VERS = 1.0
CREATION_DATE  = 2017-05-11T11:01:01
ORIGINATOR     = GMAT USER

META_START
OBJECT_NAME          = MOPSSat_alt_35785_km_RAAN_0_070
OBJECT_ID            = SatId
CENTER_NAME          = Earth
REF_FRAME            = EME2000
TIME_SYSTEM          = UTC
START_TIME           = 2017-01-01T00:00:00.000
USEABLE_START_TIME   = 2017-01-01T00:00:00.000
USEABLE_STOP_TIME    = 2017-01-02T00:00:00.000
STOP_TIME            = 2017-01-02T00:00:00.000
INTERPOLATION        = Lagrange
INTERPOLATION_DEGREE = 7 
META_STOP


                                                                                   

2017-01-01T18:01:40.000   7.778201208667459e+02  -4.215672434952212e+04   5.160404444439506e-01   3.074110869719456e+00   5.988356816705340e-02  -9.507655368432180e-05
2017-01-01T18:01:50.000   8.085610203307797e+02  -4.215611430495256e+04   5.150893731016007e-01   3.074068749798985e+00   6.212534116072133e-02  -9.513770975948416e-05
2017-01-01T18:02:00.000   8.393014906943489e+02  -4.215548184278666e+04   5.141376903401604e-01   3.074024995071003e+00   6.436708614083318e-02  -9.519883580638862e-05
2017-01-01T18:02:10.000   8.700415155283438e+02  -4.215482696331140e+04   5.131853964626371e-01   3.073979605551433e+00   6.660880190926068e-02  -9.525993177765222e-05
2017-01-01T18:02:20.000   9.007810783596042e+02  -4.215414966682790e+04   5.122324917739155e-01   3.073932581257222e+00   6.885048726465562e-02  -9.532099762581993e-05
2017-01-01T18:02:30.000   9.315201627015122e+02  -4.215344995364937e+04   5.112789765797716e-01   3.073883922206208e+00   7.109214100468113e-02  -9.538203330340465e-05
2017-01-01T18:02:40.000   9.622587520650997e+02  -4.215272782410105e+04   5.103248511865350e-01   3.073833628417099e+00   7.333376192682149e-02  -9.544303876291685e-05
2017-01-01T18:02:50.000   9.929968300689895e+02  -4.215198327851841e+04   5.093701158976949e-01   3.073781699909358e+00   7.557534883639959e-02  -9.550401395706238e-05
2017-01-01T18:03:00.000   1.023734380366104e+03  -4.215121631724790e+04   5.084147710161508e-01   3.073728136703252e+00   7.781690054123244e-02  -9.556495883861709e-05
2017-01-01T18:03:10.000   1.054471386643681e+03  -4.215042694064714e+04   5.074588168442179e-01   3.073672938819870e+00   8.005841585163199e-02  -9.562587336041935e-05
2017-01-01T18:03:20.000   1.085207832696530e+03  -4.214961514908229e+04   5.065022536813254e-01   3.073616106280922e+00   8.229989358574798e-02  -9.568675747553517e-05
2017-01-01T18:03:30.000   1.115943702317156e+03  -4.214878094293131e+04   5.055450818274503e-01   3.073557639108988e+00   8.454133256155429e-02  -9.574761113702035e-05
2017-01-01T18:03:40.000   1.146678979284671e+03  -4.214792432258463e+04   5.045873015834698e-01   3.073497537327549e+00   8.678273159604107e-02  -9.580843429790631e-05
2017-01-01T18:03:50.000   1.177413647334162e+03  -4.214704528844444e+04   5.036289132520758e-01   3.073435800960951e+00   8.902408950298073e-02  -9.586922691111696e-05
2017-01-01T18:04:00.000   1.208147690132177e+03  -4.214614384092729e+04   5.026699171385871e-01   3.073372430034567e+00   9.126540509113996e-02  -9.592998892944313e-05
2017-01-01T18:04:10.000   1.238881091367105e+03  -4.214521998046051e+04   5.017103135481101e-01   3.073307424574569e+00   9.350667717087092e-02  -9.599072030571268e-05
2017-01-01T18:04:20.000   1.269613834344289e+03  -4.214427370749673e+04   5.007501027982431e-01   3.073240784608943e+00   9.574790452458398e-02  -9.605142099201414e-05
2017-01-01T18:04:30.000   1.300345902476704e+03  -4.214330502249695e+04   4.997892852036953e-01   3.073172510166288e+00   9.798908594253154e-02  -9.611209094064232e-05
2017-01-01T18:04:40.000   1.331077279102485e+03  -4.214231392593657e+04   4.988278610819989e-01   3.073102601276257e+00   1.002302202095008e-01  -9.617273010374686e-05
2017-01-01T18:04:50.000   1.361807948191854e+03  -4.214130041828275e+04   4.978658307314021e-01   3.073031057967941e+00   1.024713061563674e-01  -9.623333843470619e-05
2017-01-01T18:05:00.000   1.392537893641997e+03  -4.214026450001686e+04   4.969031944529150e-01   3.072957880271470e+00   1.047123426086736e-01  -9.629391588675647e-05
2017-01-01T18:05:10.000   1.423267099436856e+03  -4.213920617162975e+04   4.959399525453261e-01   3.072883068217668e+00   1.069533283982810e-01  -9.635446241330034e-05
2017-01-01T18:05:20.000   1.453995549249062e+03  -4.213812543363235e+04   4.949761053175931e-01   3.072806621838799e+00   1.091942623343410e-01  -9.641497796713832e-05
2017-01-01T18:05:30.000   1.484723226735513e+03  -4.213702228654872e+04   4.940116530796672e-01   3.072728541168085e+00   1.114351432248506e-01  -9.647546250103569e-05
2017-01-01T18:05:40.000   1.515450115537345e+03  -4.213589673091476e+04   4.930465961424592e-01   3.072648826239610e+00   1.136759698766499e-01  -9.653591596772743e-05
2017-01-01T18:05:50.000   1.546176198984597e+03  -4.213474876729205e+04   4.920809348271997e-01   3.072567477089308e+00   1.159167410738839e-01  -9.659633831932333e-05
2017-01-01T18:06:00.000   1.576901460494064e+03  -4.213357839625042e+04   4.911146694528642e-01   3.072484493753718e+00   1.181574556070172e-01  -9.665672950810421e-05
2017-01-01T18:06:10.000   1.607625883412571e+03  -4.213238561837443e+04   4.901478003411159e-01   3.072399876270454e+00   1.203981122614043e-01  -9.671708948620919e-05
2017-01-01T18:06:20.000   1.638349451710325e+03  -4.213117043423659e+04   4.891803277944917e-01   3.072313624676296e+00   1.226387098678541e-01  -9.677741820701112e-05
2017-01-01T18:06:30.000   1.669072149287569e+03  -4.212993284442396e+04   4.882122521182107e-01   3.072225739009077e+00   1.248792472520657e-01  -9.683771562374163e-05
2017-01-01T18:06:40.000   1.699793960131368e+03  -4.212867284953247e+04   4.872435736152549e-01   3.072136219307291e+00   1.271197232460625e-01  -9.689798168980362e-05
2017-01-01T18:06:50.000   1.730514867917602e+03  -4.212739045018028e+04   4.862742925988310e-01   3.072045065611020e+00   1.293601366591676e-01  -9.695821635797834e-05
2017-01-01T18:07:00.000   1.761234856306518e+03  -4.212608564699869e+04   4.853044093831417e-01   3.071952277961314e+00   1.316004862995552e-01  -9.701841958101693e-05
2017-01-01T18:07:10.000   1.791953908942669e+03  -4.212475844063098e+04   4.843339242833538e-01   3.071857856400088e+00   1.338407709742491e-01  -9.707859131163671e-05
2017-01-01T18:07:20.000   1.822672009159687e+03  -4.212340883174814e+04   4.833628376250068e-01   3.071761800971257e+00   1.360809894675896e-01  -9.713873150194993e-05
2017-01-01T18:07:30.000   1.853389140378013e+03  -4.212203682102884e+04   4.823911497313711e-01   3.071664111719301e+00   1.383211405702411e-01  -9.719884010423656e-05
2017-01-01T18:07:40.000   1.884105285948217e+03  -4.212064240916698e+04   4.814188609284174e-01   3.071564788689809e+00   1.405612230677648e-01  -9.725891707063808e-05
2017-01-01T18:07:50.000   1.914820429844160e+03  -4.211922559684029e+04   4.804459715228795e-01   3.071463831927237e+00   1.428012357911702e-01  -9.731896235451646e-05
2017-01-01T18:08:00.000   1.945534555969839e+03  -4.211778638474149e+04   4.794724818241859e-01   3.071361241477125e+00   1.450411775663645e-01  -9.737897590909376e-05
2017-01-01T18:08:10.000   1.976247648316126e+03  -4.211632477357164e+04   4.784983921395136e-01   3.071257017385640e+00   1.472810472255831e-01  -9.743895768776223e-05
2017-01-01T18:08:20.000   2.006959690562864e+03  -4.211484076405601e+04   4.775237027863191e-01   3.071151159700680e+00   1.495208435783716e-01  -9.749890764329124e-05
2017-01-01T18:08:30.000   2.037670666374341e+03  -4.211333435693318e+04   4.765484140830575e-01   3.071043668471115e+00   1.517605654331335e-01  -9.755882572842168e-05
2017-01-01T18:08:40.000   2.068380559399240e+03  -4.211180555295380e+04   4.755725263491509e-01   3.070934543746698e+00   1.540002115971272e-01  -9.761871189585871e-05
2017-01-01T18:08:50.000   2.099089352975502e+03  -4.211025435289824e+04   4.745960399144497e-01   3.070823785579323e+00   1.562397808549412e-01  -9.767856609771854e-05
2017-01-01T18:09:00.000   2.129797030527930e+03  -4.210868075755403e+04   4.736189551065189e-01   3.070711394021412e+00   1.584792719974916e-01  -9.773838828628152e-05
2017-01-01T18:09:10.000   2.160503575408579e+03  -4.210708476772447e+04   4.726412722557320e-01   3.070597369126538e+00   1.607186838103815e-01  -9.779817841368845e-05
2017-01-01T18:09:20.000   2.191208971601311e+03  -4.210546638419224e+04   4.716629916728397e-01   3.070481710946809e+00   1.629580151252844e-01  -9.785793643329202e-05
2017-01-01T18:09:30.000   2.221913203015457e+03  -4.210382560775555e+04   4.706841136714530e-01   3.070364419535473e+00   1.651972647684304e-01  -9.791766229830184e-05
2017-01-01T18:09:40.000   2.252616253668177e+03  -4.210216243921933e+04   4.697046385622444e-01   3.070245494946264e+00   1.674364315739066e-01  -9.797735596213242e-05
2017-01-01T18:09:50.000   2.283318107194085e+03  -4.210047687941894e+04   4.687245666685222e-01   3.070124937235118e+00   1.696755143478937e-01  -9.803701737746734e-05
2017-01-01T18:10:00.000   2.314018747249952e+03  -4.209876892920097e+04   4.677438983133878e-01   3.070002746458780e+00   1.719145118981813e-01  -9.809664649702841e-05
2017-01-01T18:10:10.000   2.344718157424375e+03  -4.209703858942727e+04   4.667626338226014e-01   3.069878922675115e+00   1.741534230275795e-01  -9.815624327340680e-05
2017-01-01T18:10:20.000   2.375416321262422e+03  -4.209528586097544e+04   4.657807735238410e-01   3.069753465943124e+00   1.763922465357167e-01  -9.821580765909242e-05
2017-01-01T18:10:30.000   2.406113222296141e+03  -4.209351074473561e+04   4.647983177456904e-01   3.069626376322727e+00   1.786309812212637e-01  -9.827533960655177e-05
2017-01-01T18:10:40.000   2.436808844055644e+03  -4.209171324161007e+04   4.638152668172881e-01   3.069497653874730e+00   1.808696258827439e-01  -9.833483906824270e-05
